{"type": "FeatureCollection", "features": [ {"type": "Feature", "properties": {"norad_id": 34738, "name": "COSMOS 2251 DEB", "group": "cosmos-2251-debris", "lat": 42.56064576185919, "lon": -67.74086488078706, "alt_km": 758.508642232312, "timestamp": "2025-12-21T03:56:51.227777+00:00", "meta": {"OBJECT_NAME": "COSMOS 2251 DEB", "OBJECT_ID": "1993-036ZG", "EPOCH": "2025-12-20T12:59:02.140800", "MEAN_MOTION": 14.46318559, "ECCENTRICITY": 0.0047533, "INCLINATION": 74.0152, "RA_OF_ASC_NODE": 128.6853, "ARG_OF_PERICENTER": 273.5184, "MEAN_ANOMALY": 217.0479, "EPHEMERIS_TYPE": 0, "CLASSIFICATION_TYPE": "U", "NORAD_CAT_ID": 34738, "ELEMENT_SET_NO": 999, "REV_AT_EPOCH": 87971, "BSTAR": 0.00021891, "MEAN_MOTION_DOT": 7.68e-06, "MEAN_MOTION_DDOT": 0}, "tle": {"line1": "1 34738U 93036ZG  25354.54099700  .00000768  00000+0  21891-3 0  9993", "line2": "2 34738  74.0152 128.6853 0047533 273.5184 217.0479 14.46318559879719"}}, "geometry": {"type": "Point", "coordinates": [-67.74086488078706, 42.56064576185919]}}, {"type": "Feature", "properties": {"norad_id": 34750, "name": "COSMOS 2251 DEB", "group": "cosmos-2251-debris", "lat": 27.537054698355483, "lon": -165.74487640122075, "alt_km": 695.1366089413623, "timestamp": "2025-12-21T03:56:51.227786+00:00", "meta": {"OBJECT_NAME": "COSMOS 2251 DEB", "OBJECT_ID": "1993-036ZU", "EPOCH": "2025-12-20T08:23:13.654176", "MEAN_MOTION": 14.61389067, "ECCENTRICITY": 0.00385028, "INCLINATION": 74.1061, "RA_OF_ASC_NODE": 187.263, "ARG_OF_PERICENTER": 137.7769, "MEAN_ANOMALY": 285.4299, "EPHEMERIS_TYPE": 0, "CLASSIFICATION_TYPE": "U", "NORAD_CAT_ID": 34750, "ELEMENT_SET_NO": 999, "REV_AT_EPOCH": 88342, "BSTAR": 0.0006714335, "MEAN_MOTION_DOT": 3.328e-05, "MEAN_MOTION_DDOT": 0}, "tle": {"line1": "1 34750U 93036ZU  25354.34946359  .00003328  00000+0  67143-3 0  9991", "line2": "2 34750  74.1061 187.2630 0038502 137.7769 285.4299 14.61389067883424"}}, "geometry": {"type": "Point", "coordinates": [-165.74487640122075, 27.537054698355483]}}, {"type": "Feature", "properties": {"norad_id": 34752, "name": "COSMOS 2251 DEB", "group": "cosmos-2251-debris", "lat": -72.15080396950208, "lon": -133.6283313245504, "alt_km": 602.8679867205219, "timestamp": "2025-12-21T03:56:51.227795+00:00", "meta": {"OBJECT_NAME": "COSMOS 2251 DEB", "OBJECT_ID": "1993-036ZW", "EPOCH": "2025-12-20T17:10:59.909088", "MEAN_MOTION": 15.00090674, "ECCENTRICITY": 0.0047545, "INCLINATION": 74.0128, "RA_OF_ASC_NODE": 344.3684, "ARG_OF_PERICENTER": 110.2129, "MEAN_ANOMALY": 250.418, "EPHEMERIS_TYPE": 0, "CLASSIFICATION_TYPE": "U", "NORAD_CAT_ID": 34752, "ELEMENT_SET_NO": 999, "REV_AT_EPOCH": 89969, "BSTAR": 0.00062371, "MEAN_MOTION_DOT": 7.931e-05, "MEAN_MOTION_DDOT": 0}, "tle": {"line1": "1 34752U 93036ZW  25354.71597117  .00007931  00000+0  62371-3 0  9990", "line2": "2 34752  74.0128 344.3684 0047545 110.2129 250.4180 15.00090674899691"}}, "geometry": {"type": "Point", "coordinates": [-133.6283313245504, -72.15080396950208]}}, {"type": "Feature", "properties": {"norad_id": 34754, "name": "COSMOS 2251 DEB", "group": "cosmos-2251-debris", "lat": -48.64133854184644, "lon": 51.002894763182226, "alt_km": 765.2666136612579, "timestamp": "2025-12-21T03:56:51.227804+00:00", "meta": {"OBJECT_NAME": "COSMOS 2251 DEB", "OBJECT_ID": "1993-036ZY", "EPOCH": "2025-12-20T19:07:10.185888", "MEAN_MOTION": 14.40491841, "ECCENTRICITY": 0.0029871, "INCLINATION": 74.0294, "RA_OF_ASC_NODE": 212.6992, "ARG_OF_PERICENTER": 327.2966, "MEAN_ANOMALY": 157.5526, "EPHEMERIS_TYPE": 0, "CLASSIFICATION_TYPE": "U", "NORAD_CAT_ID": 34754, "ELEMENT_SET_NO": 999, "REV_AT_EPOCH": 88249, "BSTAR": 0.00013988, "MEAN_MOTION_DOT": 4.21e-06, "MEAN_MOTION_DDOT": 0}, "tle": {"line1": "1 34754U 93036ZY  25354.79664567  .00000421  00000+0  13988-3 0  9991", "line2": "2 34754  74.0294 212.6992 0029871 327.2966 157.5526 14.40491841882492"}}, "geometry": {"type": "Point", "coordinates": [51.002894763182226, -48.64133854184644]}}, {"type": "Feature", "properties": {"norad_id": 34755, "name": "COSMOS 2251 DEB", "group": "cosmos-2251-debris", "lat": 43.951957455789326, "lon": 80.34478906121613, "alt_km": 1352.3802104923598, "timestamp": "2025-12-21T03:56:51.227813+00:00", "meta": {"OBJECT_NAME": "COSMOS 2251 DEB", "OBJECT_ID": "1993-036ZZ", "EPOCH": "2025-12-20T18:30:29.240064", "MEAN_MOTION": 13.50572591, "ECCENTRICITY": 0.0408127, "INCLINATION": 73.9255, "RA_OF_ASC_NODE": 277.1155, "ARG_OF_PERICENTER": 295.5233, "MEAN_ANOMALY": 88.1239, "EPHEMERIS_TYPE": 0, "CLASSIFICATION_TYPE": "U", "NORAD_CAT_ID": 34755, "ELEMENT_SET_NO": 999, "REV_AT_EPOCH": 82632, "BSTAR": 0.00057435, "MEAN_MOTION_DOT": 5.95e-06, "MEAN_MOTION_DDOT": 0}, "tle": {"line1": "1 34755U 93036ZZ  25354.77117176  .00000595  00000+0  57435-3 0  9996", "line2": "2 34755  73.9255 277.1155 0408127 295.5233  88.1239 13.50572591826326"}}, "geometry": {"type": "Point", "coordinates": [80.34478906121613, 43.951957455789326]}}, {"type": "Feature", "properties": {"norad_id": 34756, "name": "COSMOS 2251 DEB", "group": "cosmos-2251-debris", "lat": -4.18052700193431, "lon": -88.28301386632464, "alt_km": 1205.1605222069393, "timestamp": "2025-12-21T03:56:51.227822+00:00", "meta": {"OBJECT_NAME": "COSMOS 2251 DEB", "OBJECT_ID": "1993-036AAA", "EPOCH": "2025-12-20T05:57:15.725088", "MEAN_MOTION": 13.67260552, "ECCENTRICITY": 0.0345561, "INCLINATION": 74.0031, "RA_OF_ASC_NODE": 92.022, "ARG_OF_PERICENTER": 326.2182, "MEAN_ANOMALY": 31.7332, "EPHEMERIS_TYPE": 0, "CLASSIFICATION_TYPE": "U", "NORAD_CAT_ID": 34756, "ELEMENT_SET_NO": 999, "REV_AT_EPOCH": 83524, "BSTAR": 0.00082416, "MEAN_MOTION_DOT": 1.022e-05, "MEAN_MOTION_DDOT": 0}, "tle": {"line1": "1 34756U 93036AAA 25354.24809867  .00001022  00000+0  82416-3 0  9997", "line2": "2 34756  74.0031  92.0220 0345561 326.2182  31.7332 13.67260552835243"}}, "geometry": {"type": "Point", "coordinates": [-88.28301386632464, -4.18052700193431]}}, {"type": "Feature", "properties": {"norad_id": 34758, "name": "COSMOS 2251 DEB", "group": "cosmos-2251-debris", "lat": 18.47935569010447, "lon": -68.59815401353308, "alt_km": 790.5402079004662, "timestamp": "2025-12-21T03:56:51.227831+00:00", "meta": {"OBJECT_NAME": "COSMOS 2251 DEB", "OBJECT_ID": "1993-036AAC", "EPOCH": "2025-12-20T19:01:10.843104", "MEAN_MOTION": 13.58096549, "ECCENTRICITY": 0.0382019, "INCLINATION": 74.1076, "RA_OF_ASC_NODE": 286.5371, "ARG_OF_PERICENTER": 48.3644, "MEAN_ANOMALY": 314.9524, "EPHEMERIS_TYPE": 0, "CLASSIFICATION_TYPE": "U", "NORAD_CAT_ID": 34758, "ELEMENT_SET_NO": 999, "REV_AT_EPOCH": 83019, "BSTAR": 0.0013304, "MEAN_MOTION_DOT": 1.532e-05, "MEAN_MOTION_DDOT": 0}, "tle": {"line1": "1 34758U 93036AAC 25354.79248661  .00001532  00000+0  13304-2 0  9993", "line2": "2 34758  74.1076 286.5371 0382019  48.3644 314.9524 13.58096549830197"}}, "geometry": {"type": "Point", "coordinates": [-68.59815401353308, 18.47935569010447]}}, {"type": "Feature", "properties": {"norad_id": 34760, "name": "COSMOS 2251 DEB", "group": "cosmos-2251-debris", "lat": -23.941851909168733, "lon": -79.96340887228605, "alt_km": 761.9386357740832, "timestamp": "2025-12-21T03:56:51.227840+00:00", "meta": {"OBJECT_NAME": "COSMOS 2251 DEB", "OBJECT_ID": "1993-036AAE", "EPOCH": "2025-12-20T02:45:56.187360", "MEAN_MOTION": 14.19587536, "ECCENTRICITY": 0.00971328, "INCLINATION": 74.0633, "RA_OF_ASC_NODE": 289.197, "ARG_OF_PERICENTER": 339.7094, "MEAN_ANOMALY": 35.4086, "EPHEMERIS_TYPE": 0, "CLASSIFICATION_TYPE": "U", "NORAD_CAT_ID": 34760, "ELEMENT_SET_NO": 999, "REV_AT_EPOCH": 86793, "BSTAR": 0.00035343291, "MEAN_MOTION_DOT": 7.56e-06, "MEAN_MOTION_DDOT": 0}, "tle": {"line1": "1 34760U 93036AAE 25354.11523365  .00000756  00000+0  35343-3 0  9994", "line2": "2 34760  74.0633 289.1970 0097132 339.7094  35.4086 14.19587536867936"}}, "geometry": {"type": "Point", "coordinates": [-79.96340887228605, -23.941851909168733]}}, {"type": "Feature", "properties": {"norad_id": 34761, "name": "COSMOS 2251 DEB", "group": "cosmos-2251-debris", "lat": 73.06607027632401, "lon": 97.10755181010502, "alt_km": 751.3499402516791, "timestamp": "2025-12-21T03:56:51.227849+00:00", "meta": {"OBJECT_NAME": "COSMOS 2251 DEB", "OBJECT_ID": "1993-036AAF", "EPOCH": "2025-12-20T15:49:12.080640", "MEAN_MOTION": 14.3807453, "ECCENTRICITY": 0.0036847, "INCLINATION": 74.0284, "RA_OF_ASC_NODE": 348.1964, "ARG_OF_PERICENTER": 20.0279, "MEAN_ANOMALY": 340.2311, "EPHEMERIS_TYPE": 0, "CLASSIFICATION_TYPE": "U", "NORAD_CAT_ID": 34761, "ELEMENT_SET_NO": 999, "REV_AT_EPOCH": 87763, "BSTAR": 0.00043328, "MEAN_MOTION_DOT": 1.297e-05, "MEAN_MOTION_DDOT": 0}, "tle": {"line1": "1 34761U 93036AAF 25354.65916760  .00001297  00000+0  43328-3 0  9992", "line2": "2 34761  74.0284 348.1964 0036847  20.0279 340.2311 14.38074530877631"}}, "geometry": {"type": "Point", "coordinates": [97.10755181010502, 73.06607027632401]}}, {"type": "Feature", "properties": {"norad_id": 34784, "name": "COSMOS 2251 DEB", "group": "cosmos-2251-debris", "lat": -60.52008362117702, "lon": -82.25588659053388, "alt_km": 732.1464666905549, "timestamp": "2025-12-21T03:56:51.227858+00:00", "meta": {"OBJECT_NAME": "COSMOS 2251 DEB", "OBJECT_ID": "1993-036AAM", "EPOCH": "2025-12-19T22:39:42.145920", "MEAN_MOTION": 14.60808995, "ECCENTRICITY": 0.0049222, "INCLINATION": 74.0073, "RA_OF_ASC_NODE": 310.5647, "ARG_OF_PERICENTER": 117.7322, "MEAN_ANOMALY": 242.885, "EPHEMERIS_TYPE": 0, "CLASSIFICATION_TYPE": "U", "NORAD_CAT_ID": 34784, "ELEMENT_SET_NO": 999, "REV_AT_EPOCH": 88640, "BSTAR": 0.00031795, "MEAN_MOTION_DOT": 1.549e-05, "MEAN_MOTION_DDOT": 0}, "tle": {"line1": "1 34784U 93036AAM 25353.94423780  .00001549  00000+0  31795-3 0  9998", "line2": "2 34784  74.0073 310.5647 0049222 117.7322 242.8850 14.60808995886402"}}, "geometry": {"type": "Point", "coordinates": [-82.25588659053388, -60.52008362117702]}}]}